ONEWEB-0029             
1 45445U 20020X   26053.03776837  .00000448  00000+0  12289-2 0  9992
2 45445  87.8840  43.9670 0001697  88.4296 271.7026 13.11414823287569
ONEWEB-0068             
1 45446U 20020Y   26053.02151440  .00000190  00000+0  50150-3 0  9993
2 45446  87.8844  43.9603 0001647  84.3204 275.8111 13.11418974287504
ONEWEB-0046             
1 45447U 20020Z   26053.01316548 -.00000166  00000+0 -50420-3 0  9990
2 45447  87.8843  43.9690 0001822  77.0085 283.1246 13.11419570287516
ONEWEB-0063             
1 45448U 20020AA  26052.96570762  .00000478  00000+0  13136-2 0  9990
2 45448  87.8842  43.9763 0001963  78.6543 281.4805 13.11416422287592
ONEWEB-0019             
1 45449U 20020AB  26053.00453967 -.00000438  00000+0 -12707-2 0  9995
2 45449  87.8829  43.9646 0001920  90.5949 269.5399 13.11416128287446
ONEWEB-0094             
1 45450U 20020AC  26053.15964104  .00000024  00000+0  29803-4 0  9999
2 45450  87.9135  28.6830 0001680  88.8523 271.2801 13.17651457291169
ONEWEB-0087             
1 45451U 20020AD  26053.05203032  .00000120  00000+0  30374-3 0  9996
2 45451  87.8849  43.9249 0001524  84.7336 275.3966 13.11415088287499
ONEWEB-0082             
1 45452U 20020AE  26053.04878205  .00000202  00000+0  53291-3 0  9990
2 45452  87.8844  43.9499 0001582  87.2331 272.8978 13.11414652287580
ONEWEB-0050             
1 45453U 20020AF  26053.04252155  .00001551  00000+0  15898-3 0  9990
2 45453  88.9191 248.8982 0005018  54.8932 305.2767 14.89936256323231
ONEWEB-0034             
1 45454U 20020AG  26052.91736285 -.00000466  00000+0 -13506-2 0  9996
2 45454  87.8838  43.9819 0001850  86.9167 273.2173 13.11414292287483
ONEWEB-0060             
1 45455U 20020AH  26053.04115409  .00000466  00000+0  12788-2 0  9990
2 45455  87.8831  43.9686 0000820 100.1714 259.9506 13.11414552287459
ONEWEB-0086             
1 45456U 20020AJ  26053.01995162  .00000094  00000+0  22898-3 0  9991
2 45456  87.8843  43.9594 0001497 109.7324 250.3966 13.11419205287516
ONEWEB-0088             
1 45457U 20020AK  26052.92160751 -.00000655  00000+0 -18839-2 0  9993
2 45457  87.8851  43.9423 0001815  76.5690 283.5641 13.11416009287436
ONEWEB-0102             
1 47258U 20100A   26053.16832020  .00000257  00000+0  67949-3 0  9998
2 47258  87.8973  13.5093 0001716  88.0667 272.0658 13.12444808249641
ONEWEB-0109             
1 47259U 20100B   26052.79559967  .00000395  00000+0  10619-2 0  9997
2 47259  87.8983  13.5562 0001916  84.7822 275.3525 13.12444086249425
ONEWEB-0110             
1 47260U 20100C   26053.12766223 -.00000052  00000+0 -18041-3 0  9992
2 47260  87.8985  13.4751 0001624  88.4176 271.7138 13.12442323249632
ONEWEB-0111             
1 47261U 20100D   26053.15814770 -.00000112  00000+0 -34792-3 0  9995
2 47261  87.8977  13.4873 0001726  79.1814 280.9509 13.12444073249478
ONEWEB-0114             
1 47262U 20100E   26053.11241051  .00000406  00000+0  10921-2 0  9999
2 47262  87.8983  13.4917 0002138  82.4000 277.7371 13.12444033249429
ONEWEB-0117             
1 47263U 20100F   26052.95146185  .00000436  00000+0  11764-2 0  9992
2 47263  87.8984  13.5190 0001824  83.8201 276.3135 13.12444289249419
ONEWEB-0118             
1 47264U 20100G   26053.13780710 -.00000320  00000+0 -92576-3 0  9997
2 47264  87.8985  13.4838 0002137  76.5856 283.5511 13.12440729249639
ONEWEB-0119             
1 47265U 20100H   26052.93452419  .00000076  00000+0  17693-3 0  9990
2 47265  87.8973  13.5509 0001854  81.5889 278.5449 13.12444206249582
ONEWEB-0120             
1 47266U 20100J   26053.18708576  .00000412  00000+0  11111-2 0  9999
2 47266  87.8973  13.5022 0001928  83.1534 276.9814 13.12443787249648
ONEWEB-0121             
1 47267U 20100K   26052.87014274  .00000411  00000+0  11057-2 0  9998
2 47267  87.8981  13.5399 0001637  85.0878 275.0437 13.12444239249514
ONEWEB-0122             
1 47268U 20100L   26053.16916232  .00000301  00000+0  80051-3 0  9996
2 47268  87.8981  13.4824 0001859  85.4707 274.6634 13.12444942249467
ONEWEB-0123             
1 47269U 20100M   26052.93621626  .00000111  00000+0  27252-3 0  9994
2 47269  87.8975  13.5493 0001901  78.5691 281.5651 13.12444385249576
ONEWEB-0124             
1 47270U 20100N   26053.15475152 -.00000119  00000+0 -36727-3 0  9999
2 47270  87.8970  13.5111 0001751  78.9305 281.2020 13.12444098249487
ONEWEB-0125             
1 47271U 20100P   26052.44660343 -.00000295  00000+0 -85622-3 0  9992
2 47271  87.8983  13.6207 0001792  71.1204 289.0119 13.12442537249455
ONEWEB-0126             
1 47272U 20100Q   26052.84824554 -.00000261  00000+0 -76164-3 0  9997
2 47272  87.8981  13.5643 0001972  81.7117 278.4235 13.12445001249570
ONEWEB-0127             
1 47273U 20100R   26052.81423411 -.00000173  00000+0 -51521-3 0  9994
2 47273  87.8974  13.5764 0001981  85.5585 274.5770 13.12441153249595
ONEWEB-0128             
1 47274U 20100S   26053.14120866 -.00000335  00000+0 -96639-3 0  9999
2 47274  87.8970  13.5255 0001585  90.0851 270.0459 13.12444152249658
ONEWEB-0129             
1 47275U 20100T   26053.12087963  .00000208  00000+0  54308-3 0  9992
2 47275  87.8984  13.4917 0002910  93.8287 266.3175 13.12440028249588
ONEWEB-0130             
1 47276U 20100U   26052.84302948 -.00000343  00000+0 -98974-3 0  9993
2 47276  87.8979  13.5410 0001884  83.9518 276.1826 13.12443879249510
ONEWEB-0131             
1 47277U 20100V   26053.14458219 -.00000380  00000+0 -10904-2 0  9998
2 47277  87.8978  13.5109 0001846  82.7735 277.3603 13.12441216249598
ONEWEB-0132             
1 47278U 20100W   26052.41102203  .00000064  00000+0  14249-3 0  9991
2 47278  87.8973  13.6550 0001859  82.4870 277.6470 13.12457566249394
ONEWEB-0133             
1 47279U 20100X   26053.11395979  .00000418  00000+0  11270-2 0  9997
2 47279  87.8984  13.4792 0001691  86.0342 274.0980 13.12443419249648
ONEWEB-0134             
1 47280U 20100Y   26053.15984524 -.00000057  00000+0 -19380-3 0  9995
2 47280  87.8984  13.4674 0001836  89.5190 270.6148 13.12444385249628
ONEWEB-0135             
1 47281U 20100Z   26053.13103806 -.00000183  00000+0 -54383-3 0  9992
2 47281  87.8973  13.5106 0001776  94.1598 265.9733 13.12442703249646
ONEWEB-0136             
1 47282U 20100AA  26052.38729151 -.00000203  00000+0 -59985-3 0  9992
2 47282  87.8983  13.6302 0001960  94.1101 266.0252 13.12441824249474
ONEWEB-0137             
1 47283U 20100AB  26053.18356839  .00000467  00000+0  12629-2 0  9994
2 47283  87.8986  13.4768 0001903  76.8864 283.2476 13.12443328249483
ONEWEB-0138             
1 47284U 20100AC  26053.16153837  .00000030  00000+0  46879-4 0  9998
2 47284  87.8985  13.4908 0001936  87.6910 272.4440 13.12444521249563
ONEWEB-0139             
1 47285U 20100AD  26053.12610317  .00000037  00000+0  67434-4 0  9993
2 47285  87.8984  13.4856 0001880  83.4840 276.6503 13.12440736249637
ONEWEB-0140             
1 47286U 20100AE  26053.15644825 -.00000216  00000+0 -63488-3 0  9993
2 47286  87.8982  13.4680 0001665  82.3236 277.8082 13.12445180249609
ONEWEB-0141             
1 47287U 20100AF  26053.12581919  .00000021  00000+0  22623-4 0  9994
2 47287  87.8983  13.4805 0002063  75.4286 284.7071 13.12440125249587
ONEWEB-0142             
1 47288U 20100AG  26053.11426251  .00000429  00000+0  11572-2 0  9992
2 47288  87.8982  13.5072 0002258  81.3968 278.7416 13.12442298249571
ONEWEB-0143             
1 47289U 20100AH  26053.12426129  .00000083  00000+0  19457-3 0  9995
2 47289  87.8984  13.5014 0001866  81.0888 279.0452 13.12440225249552
ONEWEB-0144             
1 47290U 20100AJ  26053.17170845  .00000390  00000+0  10495-2 0  9996
2 47290  87.8984  13.4611 0002143  88.0158 272.1216 13.12444498249482
ONEWEB-0145             
1 47291U 20100AK  26053.14289656 -.00000378  00000+0 -10851-2 0  9999
2 47291  87.8981  13.5057 0001930  82.9107 277.2241 13.12443808249674
ONEWEB-0146             
1 47292U 20100AL  26053.13950198 -.00000361  00000+0 -10401-2 0  9998
2 47292  87.8984  13.4916 0001532  77.2699 282.8601 13.12440774249583
ONEWEB-0147             
1 47293U 20100AM  26052.87692803  .00000421  00000+0  11345-2 0  9998
2 47293  87.8985  13.5231 0001752  91.2272 268.9057 13.12443159249448
ONEWEB-0115             
1 48042U 21025A   26052.76665127 -.00000114  00000+0 -34628-3 0  9996
2 48042  87.9048 343.1667 0001734  78.1163 282.0160 13.13471023238442
ONEWEB-0152             
1 48043U 21025B   26053.08490403  .00000242  00000+0  62656-3 0  9998
2 48043  87.9044 343.1059 0001651  77.0408 283.0905 13.13472473238440
ONEWEB-0153             
1 48044U 21025C   26052.75818984 -.00000242  00000+0 -69662-3 0  9996
2 48044  87.9040 343.1763 0001863  78.4470 281.6869 13.13470879238393
ONEWEB-0154             
1 48045U 21025D   26052.75480508 -.00000283  00000+0 -80894-3 0  9999
2 48045  87.9037 343.1744 0001750  79.0104 281.1222 13.13469505238353
ONEWEB-0116             
1 48046U 21025E   26053.09844877  .00000329  00000+0  86497-3 0  9995
2 48046  87.9049 343.0935 0001613  76.9183 283.2126 13.13470982238547
ONEWEB-0150             
1 48047U 21025F   26052.77003722  .00000000  00000+0 -35263-4 0  9999
2 48047  87.9049 343.1555 0001904  72.5648 287.5689 13.13471738238392
ONEWEB-0107             
1 48048U 21025G   26052.77172203 -.00000347  00000+0 -98555-3 0  9998
2 48048  87.9049 343.1507 0002039  81.2721 278.8638 13.13469864238371
ONEWEB-0101             
1 48049U 21025H   26053.03920242  .00000099  00000+0  23620-3 0  9996
2 48049  87.9041 343.1253 0001841  83.9659 276.1680 13.13470683238381
ONEWEB-0113             
1 48050U 21025J   26053.02777301  .00000337  00000+0  88135-3 0  9990
2 48050  87.9048 343.0482 0001529  78.0077 282.1224 13.13973294238483
ONEWEB-0112             
1 48051U 21025K   26052.77681245  .00000162  00000+0  40882-3 0  9996
2 48051  87.9048 343.1476 0001909  85.7206 274.4141 13.13469365238446
